{"type": "FeatureCollection", "features": [ {"type": "Feature", "properties": {"norad_id": 32384, "name": "GPS BIIRM-5 (PRN 29)", "group": "gps-ops", "lat": -43.56339694222766, "lon": 142.5110973355143, "alt_km": 20166.253257544555, "timestamp": "2025-12-25T20:42:38.946626+00:00", "meta": {"OBJECT_NAME": "GPS BIIRM-5 (PRN 29)", "OBJECT_ID": "2007-062A", "EPOCH": "2025-12-25T01:49:33.945312", "MEAN_MOTION": 2.00549305, "ECCENTRICITY": 0.00313889, "INCLINATION": 55.1716, "RA_OF_ASC_NODE": 281.1512, "ARG_OF_PERICENTER": 162.3176, "MEAN_ANOMALY": 226.2935, "EPHEMERIS_TYPE": 0, "CLASSIFICATION_TYPE": "U", "NORAD_CAT_ID": 32384, "ELEMENT_SET_NO": 999, "REV_AT_EPOCH": 13202, "BSTAR": 0, "MEAN_MOTION_DOT": -2.4e-07, "MEAN_MOTION_DDOT": 0}, "tle": {"line1": "1 32384U 07062A   25359.07608733 -.00000024  00000+0  00000+0 0  9998", "line2": "2 32384  55.1716 281.1512 0031388 162.3176 226.2935  2.00549305132021"}}, "geometry": {"type": "Point", "coordinates": [142.5110973355143, -43.56339694222766]}}, {"type": "Feature", "properties": {"norad_id": 32711, "name": "GPS BIIRM-6 (PRN 07)", "group": "gps-ops", "lat": 16.92988691085212, "lon": -35.71771454213209, "alt_km": 20132.749416380604, "timestamp": "2025-12-25T20:42:38.946637+00:00", "meta": {"OBJECT_NAME": "GPS BIIRM-6 (PRN 07)", "OBJECT_ID": "2008-012A", "EPOCH": "2025-12-24T15:20:51.280224", "MEAN_MOTION": 2.00566104, "ECCENTRICITY": 0.0202975, "INCLINATION": 54.4784, "RA_OF_ASC_NODE": 156.8979, "ARG_OF_PERICENTER": 245.0885, "MEAN_ANOMALY": 112.7759, "EPHEMERIS_TYPE": 0, "CLASSIFICATION_TYPE": "U", "NORAD_CAT_ID": 32711, "ELEMENT_SET_NO": 999, "REV_AT_EPOCH": 13025, "BSTAR": 0, "MEAN_MOTION_DOT": 9.3e-07, "MEAN_MOTION_DDOT": 0}, "tle": {"line1": "1 32711U 08012A   25358.63948241  .00000093  00000+0  00000+0 0  9995", "line2": "2 32711  54.4784 156.8979 0202975 245.0885 112.7759  2.00566104130257"}}, "geometry": {"type": "Point", "coordinates": [-35.71771454213209, 16.92988691085212]}}, {"type": "Feature", "properties": {"norad_id": 35752, "name": "GPS BIIRM-8 (PRN 05)", "group": "gps-ops", "lat": -1.4285694365439108, "lon": -144.75994555101835, "alt_km": 20205.758726271222, "timestamp": "2025-12-25T20:42:38.946648+00:00", "meta": {"OBJECT_NAME": "GPS BIIRM-8 (PRN 05)", "OBJECT_ID": "2009-043A", "EPOCH": "2025-12-25T01:50:05.502048", "MEAN_MOTION": 2.00564872, "ECCENTRICITY": 0.00515726, "INCLINATION": 56.0995, "RA_OF_ASC_NODE": 34.2967, "ARG_OF_PERICENTER": 81.7083, "MEAN_ANOMALY": 251.5447, "EPHEMERIS_TYPE": 0, "CLASSIFICATION_TYPE": "U", "NORAD_CAT_ID": 35752, "ELEMENT_SET_NO": 999, "REV_AT_EPOCH": 11986, "BSTAR": 0, "MEAN_MOTION_DOT": -5.1e-07, "MEAN_MOTION_DDOT": 0}, "tle": {"line1": "1 35752U 09043A   25359.07645257 -.00000051  00000+0  00000+0 0  9993", "line2": "2 35752  56.0995  34.2967 0051572  81.7083 251.5447  2.00564872119863"}}, "geometry": {"type": "Point", "coordinates": [-144.75994555101835, -1.4285694365439108]}}, {"type": "Feature", "properties": {"norad_id": 36585, "name": "GPS BIIF-1  (PRN 25)", "group": "gps-ops", "lat": -45.86846843944116, "lon": 167.7230328517563, "alt_km": 20389.701619296986, "timestamp": "2025-12-25T20:42:38.946660+00:00", "meta": {"OBJECT_NAME": "GPS BIIF-1  (PRN 25)", "OBJECT_ID": "2010-022A", "EPOCH": "2025-12-25T02:37:13.768896", "MEAN_MOTION": 2.005538, "ECCENTRICITY": 0.01265811, "INCLINATION": 54.2983, "RA_OF_ASC_NODE": 215.575, "ARG_OF_PERICENTER": 65.232, "MEAN_ANOMALY": 49.6235, "EPHEMERIS_TYPE": 0, "CLASSIFICATION_TYPE": "U", "NORAD_CAT_ID": 36585, "ELEMENT_SET_NO": 999, "REV_AT_EPOCH": 11410, "BSTAR": 0, "MEAN_MOTION_DOT": 7.6e-07, "MEAN_MOTION_DDOT": 0}, "tle": {"line1": "1 36585U 10022A   25359.10918714  .00000076  00000+0  00000+0 0  9998", "line2": "2 36585  54.2983 215.5750 0126581  65.2320  49.6235  2.00553800114105"}}, "geometry": {"type": "Point", "coordinates": [167.7230328517563, -45.86846843944116]}}, {"type": "Feature", "properties": {"norad_id": 38833, "name": "GPS BIIF-3  (PRN 24)", "group": "gps-ops", "lat": 28.36456476962062, "lon": 174.19496328498798, "alt_km": 19764.148694354557, "timestamp": "2025-12-25T20:42:38.946674+00:00", "meta": {"OBJECT_NAME": "GPS BIIF-3  (PRN 24)", "OBJECT_ID": "2012-053A", "EPOCH": "2025-12-24T07:38:21.199488", "MEAN_MOTION": 2.00565058, "ECCENTRICITY": 0.01760755, "INCLINATION": 53.5598, "RA_OF_ASC_NODE": 150.7645, "ARG_OF_PERICENTER": 64.1634, "MEAN_ANOMALY": 297.6191, "EPHEMERIS_TYPE": 0, "CLASSIFICATION_TYPE": "U", "NORAD_CAT_ID": 38833, "ELEMENT_SET_NO": 999, "REV_AT_EPOCH": 9593, "BSTAR": 0, "MEAN_MOTION_DOT": 8.3e-07, "MEAN_MOTION_DDOT": 0}, "tle": {"line1": "1 38833U 12053A   25358.31830092  .00000083  00000+0  00000+0 0  9994", "line2": "2 38833  53.5598 150.7645 0176075  64.1634 297.6191  2.00565058 95932"}}, "geometry": {"type": "Point", "coordinates": [174.19496328498798, 28.36456476962062]}}, {"type": "Feature", "properties": {"norad_id": 39166, "name": "GPS BIIF-4  (PRN 27)", "group": "gps-ops", "lat": 34.36192664186493, "lon": 67.02834668257621, "alt_km": 20156.51710697481, "timestamp": "2025-12-25T20:42:38.946688+00:00", "meta": {"OBJECT_NAME": "GPS BIIF-4  (PRN 27)", "OBJECT_ID": "2013-023A", "EPOCH": "2025-12-24T04:22:45.402816", "MEAN_MOTION": 2.00564584, "ECCENTRICITY": 0.01386043, "INCLINATION": 54.6422, "RA_OF_ASC_NODE": 276.1031, "ARG_OF_PERICENTER": 48.7593, "MEAN_ANOMALY": 312.474, "EPHEMERIS_TYPE": 0, "CLASSIFICATION_TYPE": "U", "NORAD_CAT_ID": 39166, "ELEMENT_SET_NO": 999, "REV_AT_EPOCH": 9237, "BSTAR": 0, "MEAN_MOTION_DOT": -1.6e-07, "MEAN_MOTION_DDOT": 0}, "tle": {"line1": "1 39166U 13023A   25358.18246994 -.00000016  00000+0  00000+0 0  9996", "line2": "2 39166  54.6422 276.1031 0138604  48.7593 312.4740  2.00564584 92374"}}, "geometry": {"type": "Point", "coordinates": [67.02834668257621, 34.36192664186493]}}, {"type": "Feature", "properties": {"norad_id": 39533, "name": "GPS BIIF-5  (PRN 30)", "group": "gps-ops", "lat": 34.01055358979963, "lon": -53.464954825208046, "alt_km": 20177.698606403348, "timestamp": "2025-12-25T20:42:38.946699+00:00", "meta": {"OBJECT_NAME": "GPS BIIF-5  (PRN 30)", "OBJECT_ID": "2014-008A", "EPOCH": "2025-12-23T16:16:25.020768", "MEAN_MOTION": 2.00548852, "ECCENTRICITY": 0.00795532, "INCLINATION": 53.5993, "RA_OF_ASC_NODE": 156.4877, "ARG_OF_PERICENTER": 225.9161, "MEAN_ANOMALY": 133.4108, "EPHEMERIS_TYPE": 0, "CLASSIFICATION_TYPE": "U", "NORAD_CAT_ID": 39533, "ELEMENT_SET_NO": 999, "REV_AT_EPOCH": 8616, "BSTAR": 0, "MEAN_MOTION_DOT": 8.2e-07, "MEAN_MOTION_DDOT": 0}, "tle": {"line1": "1 39533U 14008A   25357.67806737  .00000082  00000+0  00000+0 0  9990", "line2": "2 39533  53.5993 156.4877 0079553 225.9161 133.4108  2.00548852 86167"}}, "geometry": {"type": "Point", "coordinates": [-53.464954825208046, 34.01055358979963]}}, {"type": "Feature", "properties": {"norad_id": 39741, "name": "GPS BIIF-6  (PRN 06)", "group": "gps-ops", "lat": -50.461000060622034, "lon": -74.84653880441107, "alt_km": 20094.324602657838, "timestamp": "2025-12-25T20:42:38.946710+00:00", "meta": {"OBJECT_NAME": "GPS BIIF-6  (PRN 06)", "OBJECT_ID": "2014-026A", "EPOCH": "2025-12-24T23:00:25.010784", "MEAN_MOTION": 2.00560429, "ECCENTRICITY": 0.00394828, "INCLINATION": 56.5788, "RA_OF_ASC_NODE": 338.3014, "ARG_OF_PERICENTER": 319.3723, "MEAN_ANOMALY": 40.3399, "EPHEMERIS_TYPE": 0, "CLASSIFICATION_TYPE": "U", "NORAD_CAT_ID": 39741, "ELEMENT_SET_NO": 999, "REV_AT_EPOCH": 8504, "BSTAR": 0, "MEAN_MOTION_DOT": -5.8e-07, "MEAN_MOTION_DDOT": 0}, "tle": {"line1": "1 39741U 14026A   25358.95862281 -.00000058  00000+0  00000+0 0  9993", "line2": "2 39741  56.5788 338.3014 0039482 319.3723  40.3399  2.00560429 85044"}}, "geometry": {"type": "Point", "coordinates": [-74.84653880441107, -50.461000060622034]}}, {"type": "Feature", "properties": {"norad_id": 40105, "name": "GPS BIIF-7  (PRN 09)", "group": "gps-ops", "lat": -39.7462860087581, "lon": -49.39627074634121, "alt_km": 20216.468577478492, "timestamp": "2025-12-25T20:42:38.946722+00:00", "meta": {"OBJECT_NAME": "GPS BIIF-7  (PRN 09)", "OBJECT_ID": "2014-045A", "EPOCH": "2025-12-23T13:11:32.096256", "MEAN_MOTION": 2.00573211, "ECCENTRICITY": 0.00324114, "INCLINATION": 55.2352, "RA_OF_ASC_NODE": 95.4677, "ARG_OF_PERICENTER": 120.1575, "MEAN_ANOMALY": 240.1743, "EPHEMERIS_TYPE": 0, "CLASSIFICATION_TYPE": "U", "NORAD_CAT_ID": 40105, "ELEMENT_SET_NO": 999, "REV_AT_EPOCH": 8255, "BSTAR": 0, "MEAN_MOTION_DOT": 8e-08, "MEAN_MOTION_DDOT": 0}, "tle": {"line1": "1 40105U 14045A   25357.54967704  .00000008  00000+0  00000+0 0  9994", "line2": "2 40105  55.2352  95.4677 0032411 120.1575 240.1743  2.00573211 82556"}}, "geometry": {"type": "Point", "coordinates": [-49.39627074634121, -39.7462860087581]}}, {"type": "Feature", "properties": {"norad_id": 40294, "name": "GPS BIIF-8  (PRN 03)", "group": "gps-ops", "lat": -33.97226122959582, "lon": 11.55722282167531, "alt_km": 20243.08519797543, "timestamp": "2025-12-25T20:42:38.946733+00:00", "meta": {"OBJECT_NAME": "GPS BIIF-8  (PRN 03)", "OBJECT_ID": "2014-068A", "EPOCH": "2025-12-23T10:16:22.808064", "MEAN_MOTION": 2.00565491, "ECCENTRICITY": 0.00608386, "INCLINATION": 56.8656, "RA_OF_ASC_NODE": 37.7327, "ARG_OF_PERICENTER": 68.9718, "MEAN_ANOMALY": 291.747, "EPHEMERIS_TYPE": 0, "CLASSIFICATION_TYPE": "U", "NORAD_CAT_ID": 40294, "ELEMENT_SET_NO": 999, "REV_AT_EPOCH": 8168, "BSTAR": 0, "MEAN_MOTION_DOT": -4.8e-07, "MEAN_MOTION_DDOT": 0}, "tle": {"line1": "1 40294U 14068A   25357.42804176 -.00000048  00000+0  00000+0 0  9993", "line2": "2 40294  56.8656  37.7327 0060838  68.9718 291.7470  2.00565491 81685"}}, "geometry": {"type": "Point", "coordinates": [11.55722282167531, -33.97226122959582]}}]}